[{"OBJECT_NAME":"TEN-KOH","OBJECT_ID":"2018-084G","EPOCH":"2026-03-09T23:23:52.653408","MEAN_MOTION":15.02465351,"ECCENTRICITY":0.0011972,"INCLINATION":98.0798,"RA_OF_ASC_NODE":257.1735,"ARG_OF_PERICENTER":91.8355,"MEAN_ANOMALY":268.424,"EPHEMERIS_TYPE":0,"CLASSIFICATION_TYPE":"U","NORAD_CAT_ID":43677,"ELEMENT_SET_NO":999,"REV_AT_EPOCH":40126,"BSTAR":0.00025918134,"MEAN_MOTION_DOT":3.377e-5,"MEAN_MOTION_DDOT":0},{"OBJECT_NAME":"STARLINK-5699","OBJECT_ID":"2023-015A","EPOCH":"2026-03-09T23:40:47.258976","MEAN_MOTION":15.02702947,"ECCENTRICITY":0.00012467,"INCLINATION":43.0033,"RA_OF_ASC_NODE":324.8108,"ARG_OF_PERICENTER":340.6338,"MEAN_ANOMALY":19.4457,"EPHEMERIS_TYPE":0,"CLASSIFICATION_TYPE":"U","NORAD_CAT_ID":55449,"ELEMENT_SET_NO":999,"REV_AT_EPOCH":17173,"BSTAR":0.0013324779,"MEAN_MOTION_DOT":0.00017922,"MEAN_MOTION_DDOT":0}]
